[{"OBJECT_NAME":"NUSAT-41 (C PAYNE-G)","OBJECT_ID":"2023-084N","EPOCH":"2026-03-09T21:55:54.837696","MEAN_MOTION":15.29680045,"ECCENTRICITY":0.00062175,"INCLINATION":97.5351,"RA_OF_ASC_NODE":204.1011,"ARG_OF_PERICENTER":322.2064,"MEAN_ANOMALY":37.8738,"EPHEMERIS_TYPE":0,"CLASSIFICATION_TYPE":"U","NORAD_CAT_ID":56944,"ELEMENT_SET_NO":999,"REV_AT_EPOCH":15260,"BSTAR":0.00059912824,"MEAN_MOTION_DOT":0.0001718,"MEAN_MOTION_DDOT":0},{"OBJECT_NAME":"STARLINK-34186","OBJECT_ID":"2025-111Y","EPOCH":"2026-03-09T10:33:02.609856","MEAN_MOTION":15.27617234,"ECCENTRICITY":0.00013915,"INCLINATION":43.0012,"RA_OF_ASC_NODE":79.4066,"ARG_OF_PERICENTER":285.7216,"MEAN_ANOMALY":74.3482,"EPHEMERIS_TYPE":0,"CLASSIFICATION_TYPE":"U","NORAD_CAT_ID":64145,"ELEMENT_SET_NO":999,"REV_AT_EPOCH":4542,"BSTAR":0.0006082668,"MEAN_MOTION_DOT":0.00016533,"MEAN_MOTION_DDOT":0}]
